STARLINK-37229          
1 69659U 26143L   26185.56897085  .00692914  00000+0  32895-2 0  9990
2 69659  97.2825 229.3278 0001564  22.7446 337.3891 15.81143530  3170
STARLINK-37556          
1 69660U 26143M   26185.00003472 -.00027572  00000+0 -14367-3 0  9999
2 69660  97.2831 228.7305 0001210  82.7097 292.3102 15.80814941  3107
STARLINK-37867          
1 69661U 26143N   26185.91670139 -.00328174  00000+0 -17691-2 0  9994
2 69661  97.2835 229.7213 0000799  74.0331 163.1749 15.80923027  3217
STARLINK-37852          
1 69662U 26143P   26185.91670139 -.02197089  00000+0 -15170-1 0  9995
2 69662  97.2834 229.6998 0001478  76.5298 111.3651 15.77577241  3216
STARLINK-37554          
1 69663U 26143Q   26185.55986304  .00519759  00000+0  25319-2 0  9995
2 69663  97.2831 229.3401 0002126 295.8230  64.2819 15.81023342  3173
STARLINK-37830          
1 69664U 26143R   26185.56577747  .00666286  00000+0  32010-2 0  9998
2 69664  97.2834 229.3307 0000786  39.1182 321.0144 15.80946982  3164
STARLINK-37837          
1 69665U 26143S   26185.55919645  .00612667  00000+0  29503-2 0  9992
2 69665  97.2828 229.3404 0000867 312.4417  47.6778 15.81034356  3162
STARLINK-37943          
1 69666U 26143T   26185.91670139 -.02458700  00000+0 -17540-1 0  9992
2 69666  97.2836 229.7130 0002017  87.3922 131.4322 15.77242883  3214
STARLINK-37941          
1 69667U 26143U   26185.56243902  .00610184  00000+0  29378-2 0  9993
2 69667  97.2827 229.3357 0000604 325.7523  34.3706 15.81043812  3165
STARLINK-37930          
1 69668U 26143V   26185.56138000  .00574108  00000+0  27785-2 0  9991
2 69668  97.2829 229.3372 0000418   5.3914 354.7359 15.81021937  3160
STARLINK-37945          
1 69669U 26143W   26185.55966381  .00438566  00000+0  21776-2 0  9993
2 69669  97.2806 229.3392 0002252  67.4325 292.7182 15.80811908  3160
STARLINK-37948          
1 69670U 26143X   26185.91670139 -.02512295  00000+0 -24853-1 0  9992
2 69670  97.2847 229.7345 0001554  84.2240 182.1558 15.69137951  3217
STARLINK-37949          
1 69671U 26143Y   26185.91670139 -.02467244  00000+0 -18884-1 0  9993
2 69671  97.2841 229.7366 0001517  85.1054 188.4534 15.75682004  3211
STARLINK-37946          
1 69672U 26143Z   26185.55454394  .00422422  00000+0  20839-2 0  9996
2 69672  97.2832 229.3469 0000604 296.2442  63.8764 15.80994377  3164
TJS-26A                 
1 69674U 26144A   26174.32980920  .00009630 -16661-6  31526-3 0  9997
2 69674  19.5157 324.7456 7314561 179.7910 181.1077  2.27958502    21
CZ-7A R/B               
1 69675U 26144B   26185.84583927  .00637001  10268-5  84610-3 0  9999
2 69675  19.4757 319.8059 7187212 188.0026 146.8095  2.47249730   300
2026-132G               
1 69676U 26132G   26178.13849605  .00008509  00000+0  61874-3 0  9998
2 69676  97.6876 241.7399 0021341 253.6187 106.2693 15.03894241  2272
STARLINK-38005          
1 69677U 26145A   26185.91670139 -.00060013  00000+0 -40510-3 0  9995
2 69677  97.2853  32.2461 0001003  63.0563 115.5230 15.75145596  2777
STARLINK-38009          
1 69678U 26145B   26185.91670139 -.00133622  00000+0 -90893-3 0  9992
2 69678  97.2853  32.2509 0001319 117.0838  71.4820 15.75192839  2773
STARLINK-37998          
1 69679U 26145C   26185.91670139  .00031035  00000+0  20900-3 0  9998
2 69679  97.2852  32.2555 0001369  79.9993 122.5137 15.75099827  2779
STARLINK-37994          
1 69680U 26145D   26185.91670139 -.00037753  00000+0 -25350-3 0  9999
2 69680  97.2852  32.2525 0001327  93.5906 100.8842 15.75177386  2777
STARLINK-37992          
1 69681U 26145E   26185.91670139 -.00112509  00000+0 -76391-3 0  9994
2 69681  97.2854  32.2541 0001416  90.4299 106.1360 15.75174141  2778
STARLINK-37997          
1 69682U 26145F   26185.91670139 -.00107312  00000+0 -72791-3 0  9991
2 69682  97.2855  32.2560 0001320 122.3518  78.2004 15.75181738  2778
STARLINK-37990          
1 69683U 26145G   26185.91670139 -.00116381  00000+0 -79041-3 0  9993
2 69683  97.2854  32.2541 0001531 120.8676  77.7016 15.75179027  2774
STARLINK-37951          
1 69684U 26145H   26185.91670139 -.00113498  00000+0 -77057-3 0  9995
2 69684  97.2854  32.2563 0001561  93.4444 111.1447 15.75178147  2773
STARLINK-37957          
1 69685U 26145J   26185.91670139 -.00028958  00000+0 -19442-3 0  9996
2 69685  97.2853  32.2596 0001240  76.0160 134.5555 15.75132552  2774
STARLINK-37968          
1 69686U 26145K   26185.91670139  .00092450  00000+0  61674-3 0  9997
2 69686  97.2855  32.2736 0001517  93.6455 150.8669 15.75086932  2779
STARLINK-37977          
1 69687U 26145L   26185.91670139 -.00040940  00000+0 -27546-3 0  9997
2 69687  97.2858  32.2753 0001704 150.2294  98.2838 15.75143502  2771
STARLINK-37908          
1 69688U 26145M   26185.91670139 -.00079208  00000+0 -53571-3 0  9994
2 69688  97.2853  32.2810 0000783 120.4556 140.0471 15.75165077  2788
STARLINK-37979          
1 69689U 26145N   26185.91670139  .00042619  00000+0  28632-3 0  9999
2 69689  97.2852  32.2815 0001440  98.5398 163.9773 15.75097264  2784
