OBJECT_NAME,OBJECT_ID,EPOCH,MEAN_MOTION,ECCENTRICITY,INCLINATION,RA_OF_ASC_NODE,ARG_OF_PERICENTER,MEAN_ANOMALY,EPHEMERIS_TYPE,CLASSIFICATION_TYPE,NORAD_CAT_ID,ELEMENT_SET_NO,REV_AT_EPOCH,BSTAR,MEAN_MOTION_DOT,MEAN_MOTION_DDOT
STARLINK-37229,2026-143L,2026-07-04T13:39:19.081440,15.81143530,.00015648,97.2825,229.3278,22.7446,337.3891,0,U,69659,999,317,.32894523E-2,.692914E-2,0
STARLINK-37556,2026-143M,2026-07-04T00:00:02.999808,15.80814941,.00012105,97.2831,228.7305,82.7097,292.3102,0,U,69660,999,310,-.14366592E-3,-.27572E-3,0
STARLINK-37867,2026-143N,2026-07-04T22:00:03.000096,15.80923027,.00007992,97.2835,229.7213,74.0331,163.1749,0,U,69661,999,321,-.1769124E-2,-.328174E-2,0
STARLINK-37852,2026-143P,2026-07-04T22:00:03.000096,15.77577241,.00014782,97.2834,229.6998,76.5298,111.3651,0,U,69662,999,321,-.15169936E-1,-.2197089E-1,0
STARLINK-37554,2026-143Q,2026-07-04T13:26:12.166656,15.81023342,.00021268,97.2831,229.3401,295.8230,64.2819,0,U,69663,999,317,.2531915E-2,.519759E-2,0
STARLINK-37830,2026-143R,2026-07-04T13:34:43.173408,15.80946982,.00007868,97.2834,229.3307,39.1182,321.0144,0,U,69664,999,316,.32009925E-2,.666286E-2,0
STARLINK-37837,2026-143S,2026-07-04T13:25:14.573280,15.81034356,.00008677,97.2828,229.3404,312.4417,47.6778,0,U,69665,999,316,.29503029E-2,.612667E-2,0
STARLINK-37943,2026-143T,2026-07-04T22:00:03.000096,15.77242883,.00020179,97.2836,229.7130,87.3922,131.4322,0,U,69666,999,321,-.17539654E-1,-.24587E-1,0
STARLINK-37941,2026-143U,2026-07-04T13:29:54.731328,15.81043812,.00006042,97.2827,229.3357,325.7523,34.3706,0,U,69667,999,316,.29377972E-2,.610184E-2,0
STARLINK-37930,2026-143V,2026-07-04T13:28:23.232000,15.81021937,.00004186,97.2829,229.3372,5.3914,354.7359,0,U,69668,999,316,.27785214E-2,.574108E-2,0
STARLINK-37945,2026-143W,2026-07-04T13:25:54.953184,15.80811908,.00022529,97.2806,229.3392,67.4325,292.7182,0,U,69669,999,316,.21776358E-2,.438566E-2,0
STARLINK-37948,2026-143X,2026-07-04T22:00:03.000096,15.69137951,.00015542,97.2847,229.7345,84.2240,182.1558,0,U,69670,999,321,-.24852524E-1,-.2512295E-1,0
STARLINK-37949,2026-143Y,2026-07-04T22:00:03.000096,15.75682004,.00015179,97.2841,229.7366,85.1054,188.4534,0,U,69671,999,321,-.18883518E-1,-.2467244E-1,0
STARLINK-37946,2026-143Z,2026-07-04T13:18:32.596416,15.80994377,.00006042,97.2832,229.3469,296.2442,63.8764,0,U,69672,999,316,.20838561E-2,.422422E-2,0
TJS-26A,2026-144A,2026-06-23T07:54:55.514880,2.27958502,.73145613,19.5157,324.7456,179.7910,181.1077,0,U,69674,999,2,.31526459E-3,.963E-4,-.166614E-6
CZ-7A R/B,2026-144B,2026-07-04T20:18:00.512928,2.47249730,.71872124,19.4757,319.8059,188.0026,146.8095,0,U,69675,999,30,.84609749E-3,.637001E-2,.102683E-5
2026-132G,2026-132G,2026-06-27T03:19:26.058720,15.03894241,.00213411,97.6876,241.7399,253.6187,106.2693,0,U,69676,999,227,.61874088E-3,.8509E-4,0
STARLINK-38005,2026-145A,2026-07-04T22:00:03.000096,15.75145596,.00010038,97.2853,32.2461,63.0563,115.5230,0,U,69677,999,277,-.40509967E-3,-.60013E-3,0
STARLINK-38009,2026-145B,2026-07-04T22:00:03.000096,15.75192839,.00013193,97.2853,32.2509,117.0838,71.4820,0,U,69678,999,277,-.90893316E-3,-.133622E-2,0
STARLINK-37998,2026-145C,2026-07-04T22:00:03.000096,15.75099827,.00013691,97.2852,32.2555,79.9993,122.5137,0,U,69679,999,277,.20899522E-3,.31035E-3,0
STARLINK-37994,2026-145D,2026-07-04T22:00:03.000096,15.75177386,.00013277,97.2852,32.2525,93.5906,100.8842,0,U,69680,999,277,-.25349673E-3,-.37753E-3,0
STARLINK-37992,2026-145E,2026-07-04T22:00:03.000096,15.75174141,.00014162,97.2854,32.2541,90.4299,106.1360,0,U,69681,999,277,-.76391379E-3,-.112509E-2,0
STARLINK-37997,2026-145F,2026-07-04T22:00:03.000096,15.75181738,.00013205,97.2855,32.2560,122.3518,78.2004,0,U,69682,999,277,-.72791016E-3,-.107312E-2,0
STARLINK-37990,2026-145G,2026-07-04T22:00:03.000096,15.75179027,.00015318,97.2854,32.2541,120.8676,77.7016,0,U,69683,999,277,-.79040578E-3,-.116381E-2,0
STARLINK-37951,2026-145H,2026-07-04T22:00:03.000096,15.75178147,.00015615,97.2854,32.2563,93.4444,111.1447,0,U,69684,999,277,-.77057174E-3,-.113498E-2,0
STARLINK-37957,2026-145J,2026-07-04T22:00:03.000096,15.75132552,.00012409,97.2853,32.2596,76.0160,134.5555,0,U,69685,999,277,-.19442151E-3,-.28958E-3,0
STARLINK-37968,2026-145K,2026-07-04T22:00:03.000096,15.75086932,.0001517,97.2855,32.2736,93.6455,150.8669,0,U,69686,999,277,.61674238E-3,.9245E-3,0
STARLINK-37977,2026-145L,2026-07-04T22:00:03.000096,15.75143502,.00017046,97.2858,32.2753,150.2294,98.2838,0,U,69687,999,277,-.27546125E-3,-.4094E-3,0
STARLINK-37908,2026-145M,2026-07-04T22:00:03.000096,15.75165077,.00007834,97.2853,32.2810,120.4556,140.0471,0,U,69688,999,278,-.53570603E-3,-.79208E-3,0
STARLINK-37979,2026-145N,2026-07-04T22:00:03.000096,15.75097264,.00014407,97.2852,32.2815,98.5398,163.9773,0,U,69689,999,278,.28632177E-3,.42619E-3,0
